EUTELSAT QUANTUM        
1 49056U 21069B   25232.91850185  .00000107  00000+0  00000+0 0  9999
2 49056   0.0054 345.0322 0001801 189.2641 173.5288  1.00270504 14913
EUTELSAT KONNECT VHTS   
1 53765U 22110A   25233.96177644 -.00000001  00000+0  00000+0 0  9991
2 53765   0.0568 103.9360 0002854  42.8501 172.6765  1.00275899  3826
EUTELSAT HOTBIRD 13F    
1 54048U 22134A   25232.60769802  .00000069  00000+0  00000+0 0  9998
2 54048   0.0628 289.2483 0001992  66.2949 205.4171  1.00270034 10369
EUTELSAT HOTBIRD 13G    
1 54225U 22146A   25232.60769802  .00000069  00000+0  00000+0 0  9998
2 54225   0.0563 246.9656 0002030 299.6456  14.3378  1.00269633  4457
EUTELSAT 10B            
1 54259U 22157A   25232.60709135  .00000050  00000+0  00000+0 0  9990
2 54259   0.0537 100.1662 0001157   4.0270  93.4999  1.00270795 10000
EUTELSAT 36D            
1 59346U 24059A   25232.56905693  .00000137  00000+0  00000+0 0  9993
2 59346   0.0043 129.2886 0000281  85.1564 355.4052  1.00271692  5133
